[
  {
    "placeId": "01",
    "placeName": "桐生"
  },
  {
    "placeId": "02",
    "placeName": "戸田"
  },
  {
    "placeId": "03",
    "placeName": "江戸川"
  },
  {
    "placeId": "04",
    "placeName": "平和島"
  },
  {
    "placeId": "05",
    "placeName": "多摩川"
  },
  {
    "placeId": "06",
    "placeName": "浜名湖"
  },
  {
    "placeId": "07",
    "placeName": "蒲郡"
  },
  {
    "placeId": "08",
    "placeName": "常滑"
  },
  {
    "placeId": "09",
    "placeName": "津"
  },
  {
    "placeId": "10",
    "placeName": "三国"
  },
  {
    "placeId": "11",
    "placeName": "びわこ"
  },
  {
    "placeId": "12",
    "placeName": "住之江"
  },
  {
    "placeId": "13",
    "placeName": "尼崎"
  },
  {
    "placeId": "14",
    "placeName": "鳴門"
  },
  {
    "placeId": "15",
    "placeName": "丸亀"
  },
  {
    "placeId": "16",
    "placeName": "児島"
  },
  {
    "placeId": "17",
    "placeName": "宮島"
  },
  {
    "placeId": "18",
    "placeName": "徳山"
  },
  {
    "placeId": "19",
    "placeName": "下関"
  },
  {
    "placeId": "20",
    "placeName": "若松"
  },
  {
    "placeId": "21",
    "placeName": "芦屋"
  },
  {
    "placeId": "22",
    "placeName": "福岡"
  },
  {
    "placeId": "23",
    "placeName": "唐津"
  },
  {
    "placeId": "24",
    "placeName": "大村"
  }
]
